NORAD_CAT_ID,OBJECT_NAME,OBJECT_TYPE,EPOCH,MEAN_MOTION,ECCENTRICITY,INCLINATION,RA_OF_ASC_NODE,ARG_OF_PERICENTER,MEAN_ANOMALY,BSTAR,MEAN_MOTION_DOT,MEAN_MOTION_DDOT,TLE_LINE0,TLE_LINE1,TLE_LINE2,SEMIMAJOR_AXIS,PERIOD,APOGEE,PERIGEE,DECAYED
53605.0,STARLINK-4693,PAYLOAD,2022-09-02 14:00:01,15.88415449,0.0033599,53.2168,261.333,57.7523,182.3696,-0.0038859,-0.01155476,0.00038444,0 STARLINK-4693,1 53605U 22104T   22245.58334491 -.01155476  38444-3 -38859-2 0  9992,2 53605  53.2168 261.3330 0033599  57.7523 182.3696 15.88415449   882,6684.861999999999,90.656,329.1869999999999,284.266,0.0
53605.0,STARLINK-4693,PAYLOAD,2022-09-03 06:00:00,15.86668515,0.002574,53.2177,257.9615,58.449,34.2908,-0.0042238,-0.01127723,0.00036196,0 STARLINK-4693,1 53605U 22104T   22246.25001157 -.01127723  36196-3 -42238-2 0  9999,2 53605  53.2177 257.9615 0025740  58.4490  34.2908 15.86668515   994,6689.768,90.756,328.852,294.413,0.0
53605.0,STARLINK-4693,PAYLOAD,2022-09-03 14:00:01,15.85919879,0.0022453,53.2169,256.2806,57.9985,139.4193,-0.0051648999999999,-0.01318111,0.00047753,0 STARLINK-4693,1 53605U 22104T   22246.58334491 -.01318111  47753-3 -51649-2 0  9995,2 53605  53.2169 256.2806 0022453  57.9985 139.4193 15.85919879  1042,6691.873000000001,90.799,328.7630000000001,298.713,0.0
53605.0,STARLINK-4693,PAYLOAD,2022-09-03 22:00:00,15.85019552,0.0019172999999999,53.2171,254.5989,57.8318,243.3066,-0.0052508999999999,-0.01133629,0.0,0 STARLINK-4693,1 53605U 22104T   22246.91667824 -.01133629  00000-0 -52509-2 0  9997,2 53605  53.2171 254.5989 0019173  57.8318 243.3066 15.85019552  1304,6694.406999999997,90.851,329.107,303.436,0.0
53605.0,STARLINK-4693,PAYLOAD,2022-09-04 06:00:00,15.8414302,0.0015753,53.2175,252.9226,57.7956,346.0008,-0.0054046,-0.01113366,0.0,0 STARLINK-4693,1 53605U 22104T   22247.25001157 -.01113366  00000-0 -54046-2 0  9990,2 53605  53.2175 252.9226 0015753  57.7956 346.0008 15.84143020  1147,6696.876,90.901,329.29,308.191,0.0
53605.0,STARLINK-4693,PAYLOAD,2022-09-04 14:00:01,15.83323997,0.0012237,53.2173,251.248,54.3681,91.0781,-0.0059694,-0.0118966,0.0,0 STARLINK-4693,1 53605U 22104T   22247.58335648 -.01189660  00000-0 -59694-2 0  9995,2 53605  53.2173 251.2480 0012237  54.3681  91.0781 15.83323997  1306,6699.185,90.948,329.2480000000001,312.8520000000001,0.0
53605.0,STARLINK-4693,PAYLOAD,2022-09-04 16:00:00,15.83130748,0.0012347,53.2173,250.8286,55.5545,205.0587,-0.0062585,-0.01230947,0.0,0 STARLINK-4693,1 53605U 22104T   22247.66667824 -.01230947  00000-0 -62585-2 0  9996,2 53605  53.2173 250.8286 0012347  55.5545 205.0587 15.83130748  1210,6699.73,90.959,329.867,313.323,0.0
53605.0,STARLINK-4693,PAYLOAD,2022-09-04 20:00:01,15.82665725,0.0010717,53.2176,249.9912,52.7803,78.1284,-0.0060927,-0.01175916,0.0,0 STARLINK-4693,1 53605U 22104T   22247.83334491 -.01175916  00000-0 -60927-2 0  9998,2 53605  53.2176 249.9912 0010717  52.7803  78.1284 15.82665725  1303,6701.043000000002,90.986,330.089,315.726,0.0
53605.0,STARLINK-4693,PAYLOAD,2022-09-05 04:00:00,15.81825491,0.0006917999999999,53.2178,248.3206,45.3903,185.2959,-0.0066353,-0.0122021,0.0,0 STARLINK-4693,1 53605U 22104T   22248.16667824 -.01220210  00000-0 -66353-2 0  9991,2 53605  53.2178 248.3206 0006918  45.3903 185.2959 15.81825491  1295,6703.415,91.034,329.918,320.643,0.0
53605.0,STARLINK-4693,PAYLOAD,2022-09-05 14:00:01,15.80719262,0.0003951,53.2172,246.2342,24.5042,59.4574,-0.0067694,-0.01183585,0.0,0 STARLINK-4693,1 53605U 22104T   22248.58334491 -.01183585  00000-0 -67694-2 0  9990,2 53605  53.2172 246.2342 0003951  24.5042  59.4574 15.80719262  1308,6706.542,91.098,331.057,325.758,0.0
53605.0,STARLINK-4693,PAYLOAD,2022-09-05 20:00:01,15.80068882,0.000343,53.2173,244.9824,16.8144,50.3264,-0.0069876999999999,-0.01184863,0.0,0 STARLINK-4693,1 53605U 22104T   22248.83334491 -.01184863  00000-0 -69877-2 0  9993,2 53605  53.2173 244.9824 0003430  16.8144  50.3264 15.80068882  1309,6708.3830000000025,91.135,332.5490000000001,327.94699999999995,0.0
53605.0,STARLINK-4693,PAYLOAD,2022-09-06 04:00:00,15.79207344,0.0003151999999999,53.2175,243.3181,9.3511,154.4449,-0.0073337,-0.01193834,0.0,0 STARLINK-4693,1 53605U 22104T   22249.16667824 -.01193834  00000-0 -73337-2 0  9993,2 53605  53.2175 243.3181 0003152   9.3511 154.4449 15.79207344  1459,6710.821999999999,91.185,334.80300000000005,330.57199999999995,0.0
53605.0,STARLINK-4693,PAYLOAD,2022-09-06 14:00:01,15.78124781,0.0002658,53.2173,241.2398,9.3352,3.8163,-0.0077278999999999,-0.01196682,0.0,0 STARLINK-4693,1 53605U 22104T   22249.58334491 -.01196682  00000-0 -77279-2 0  9993,2 53605  53.2173 241.2398 0002658   9.3352   3.8163 15.78124781  1303,6713.891,91.248,337.54,333.971,0.0
53605.0,STARLINK-4693,PAYLOAD,2022-09-06 20:00:01,15.77470767,0.0002926,53.2174,239.9926,3.7161,350.2692,-0.0079283,-0.01192624,0.0,0 STARLINK-4693,1 53605U 22104T   22249.83334491 -.01192624  00000-0 -79283-2 0  9990,2 53605  53.2174 239.9926 0002926   3.7161 350.2692 15.77470767  1559,6715.746999999999,91.285,339.577,335.646,0.0
53605.0,STARLINK-4693,PAYLOAD,2022-09-06 22:00:00,15.77255122,0.0003095,53.2175,239.5775,7.9762,99.4886,-0.0080194,-0.01194546,0.0,0 STARLINK-4693,1 53605U 22104T   22249.91667824 -.01194546  00000-0 -80194-2 0  9996,2 53605  53.2175 239.5775 0003095   7.9762  99.4886 15.77255122  1305,6716.359,91.298,340.302,336.145,0.0
53605.0,STARLINK-4693,PAYLOAD,2022-09-07 12:00:00,15.75742882,9.46e-05,53.2171,236.679,284.616,255.3815,-0.0086635,-0.01203683,0.0,0 STARLINK-4693,1 53605U 22104T   22250.50001157 -.01203683  00000-0 -86635-2 0  9993,2 53605  53.2171 236.6790 0000946 284.6160 255.3815 15.75742882  1660,6720.655,91.385,343.156,341.884,0.0
53605.0,STARLINK-4693,PAYLOAD,2022-09-07 14:00:01,15.75564912,6.82e-05,53.2167,236.2642,350.7022,302.2346,-0.0091187999999999,-0.01273105,0.0,0 STARLINK-4693,1 53605U 22104T   22250.58334491 -.01273105  00000-0 -91188-2 0  9996,2 53605  53.2167 236.2642 0000682 350.7022 302.2346 15.75564912  1304,6721.161,91.396,343.485,342.5680000000001,0.0
53605.0,STARLINK-4693,PAYLOAD,2022-09-07 22:00:00,15.74648563,0.0001046,53.2173,234.6088,46.495,337.6474,-0.0089661,-0.01188956,0.0,0 STARLINK-4693,1 53605U 22104T   22250.91667824 -.01188956  00000-0 -89661-2 0  9994,2 53605  53.2173 234.6088 0001046  46.4950 337.6474 15.74648563  1309,6723.768,91.449,346.337,344.93,0.0
53605.0,STARLINK-4693,PAYLOAD,2022-09-08 04:00:00,15.73857349,9.4e-05,53.2172,233.3709,62.4937,299.3717,-0.0054865,-0.0072761,0.0,0 STARLINK-4693,1 53605U 22104T   22251.16667824 -.00727610  00000-0 -54865-2 0  9995,2 53605  53.2172 233.3709 0000940  62.4937 299.3717 15.73857349  1766,6726.022,91.495,348.519,347.254,0.0
53605.0,STARLINK-4693,PAYLOAD,2022-09-08 14:00:01,15.73206721,0.0001094,53.2172,231.3081,71.7118,131.8047,-3.7796e-05,-5.922e-05,0.0,0 STARLINK-4693,1 53605U 22104T   22251.58334491 -.00005922  00000-0 -37796-4 0  9993,2 53605  53.2172 231.3081 0001094  71.7118 131.8047 15.73206721  1300,6727.876,91.533,350.477,349.005,0.0
53605.0,STARLINK-4693,PAYLOAD,2022-09-08 22:00:00,15.73256902,9.79e-05,53.215,229.6543,76.4264,216.05900000000003,-0.00020441,-0.00029277,0.0,0 STARLINK-4693,1 53605U 22104T   22251.91667824 -.00029277  00000-0 -20441-3 0  9996,2 53605  53.2150 229.6543 0000979  76.4264 216.0590 15.73256902  1882,6727.733,91.53,350.25699999999995,348.939,0.0
53605.0,STARLINK-4693,PAYLOAD,2022-09-09 14:00:01,15.73176044,0.0001132,53.2144,226.3563,72.3011,38.0961,0.00020086,0.00027633,0.0,0 STARLINK-4693,1 53605U 22104T   22252.58334491  .00027633  00000-0  20086-3 0  9998,2 53605  53.2144 226.3563 0001132  72.3011  38.0961 15.73176044  1307,6727.9630000000025,91.535,350.59,349.06699999999995,0.0
53605.0,STARLINK-4693,PAYLOAD,2022-09-09 22:00:00,15.73207297,0.0001062,53.2148,224.7055,86.5893,112.7146,0.00050059,0.00070246,0.0,0 STARLINK-4693,1 53605U 22104T   22252.91667824  .00070246  00000-0  50059-3 0  9995,2 53605  53.2148 224.7055 0001062  86.5893 112.7146 15.73207297  1306,6727.874,91.533,350.454,349.025,0.0
53605.0,STARLINK-4693,PAYLOAD,2022-09-10 12:00:00,15.73229136,0.0001027,53.215,221.8205,69.0615,195.8696,-0.00063176,-0.00088463,0.0,0 STARLINK-4693,1 53605U 22104T   22253.50001157 -.00088463  00000-0 -63176-3 0  9998,2 53605  53.2150 221.8205 0001027  69.0615 195.8696 15.73229136  2133,6727.812,91.531,350.36800000000005,348.986,0.0
53605.0,STARLINK-4693,PAYLOAD,2022-09-10 14:00:01,15.73208798,0.0001044,53.2153,221.4076,74.1846,302.9866,-0.00048063,-0.00067557,0.0,0 STARLINK-4693,1 53605U 22104T   22253.58334491 -.00067557  00000-0 -48063-3 0  9995,2 53605  53.2153 221.4076 0001044  74.1846 302.9866 15.73208798  1309,6727.87,91.533,350.43699999999984,349.033,0.0
53605.0,STARLINK-4693,PAYLOAD,2022-09-10 20:00:01,15.7314522,0.0001143,53.2153,220.1692,83.5902,270.277,0.00072171,0.00101661,0.0,0 STARLINK-4693,1 53605U 22104T   22253.83334491  .00101661  00000-0  72171-3 0  9993,2 53605  53.2153 220.1692 0001143  83.5902 270.2770 15.73145220  2184,6728.051,91.536,350.685,349.147,0.0
53605.0,STARLINK-4693,PAYLOAD,2022-09-10 22:00:00,15.73168265,0.0001186,53.2155,219.7572,85.1953,20.8765,0.00047114,0.00065931,0.0,0 STARLINK-4693,1 53605U 22104T   22253.91667824  .00065931  00000-0  47114-3 0  9999,2 53605  53.2155 219.7572 0001186  85.1953  20.8765 15.73168265  1308,6727.986,91.535,350.649,349.05300000000005,0.0
53605.0,STARLINK-4693,PAYLOAD,2022-09-11 04:00:00,15.7323115,0.0001177,53.2157,218.5226,74.104,8.6456,-0.00037845,-0.00053466,0.0,0 STARLINK-4693,1 53605U 22104T   22254.16667824 -.00053466  00000-0 -37845-3 0  9999,2 53605  53.2157 218.5226 0001177  74.1040   8.6456 15.73231150  2247,6727.806,91.531,350.463,348.88,0.0
53605.0,STARLINK-4693,PAYLOAD,2022-09-11 14:00:01,15.73344291,0.0001026,53.2159,216.4604,78.5146,205.4576,-0.0025226999999999,-0.00342721,0.0,0 STARLINK-4693,1 53605U 22104T   22254.58334491 -.00342721  00000-0 -25227-2 0  9991,2 53605  53.2159 216.4604 0001026  78.5146 205.4576 15.73344291  2302,6727.484,91.525,350.039,348.659,0.0
